NORAD_CAT_ID,OBJECT_NAME,OBJECT_TYPE,EPOCH,MEAN_MOTION,ECCENTRICITY,INCLINATION,RA_OF_ASC_NODE,ARG_OF_PERICENTER,MEAN_ANOMALY,BSTAR,MEAN_MOTION_DOT,MEAN_MOTION_DDOT,TLE_LINE0,TLE_LINE1,TLE_LINE2,SEMIMAJOR_AXIS,PERIOD,APOGEE,PERIGEE,DECAYED
51867.0,STARLINK-3590,PAYLOAD,2024-03-07 08:17:00,15.08843412,0.0001582,53.2163,56.7412,101.2388,258.8782,0.00019247,2.777e-05,0.0,0 STARLINK-3590,1 51867U 22022R   24067.34513908  .00002777  00000-0  19247-3 0  9996,2 51867  53.2163  56.7412 0001582 101.2388 258.8782 15.08843412112553,6917.87,95.437,540.829,538.641,0.0
51867.0,STARLINK-3590,PAYLOAD,2024-03-08 04:57:00,15.08842659,0.0001655,53.2167,52.8732,93.8377,266.2804,7.4486e-05,8.98e-06,0.0,0 STARLINK-3590,1 51867U 22022R   24068.20626019  .00000898  00000-0  74486-4 0  9999,2 51867  53.2167  52.8732 0001655  93.8377 266.2804 15.08842659112688,6917.872,95.437,540.882,538.592,0.0
51867.0,STARLINK-3590,PAYLOAD,2024-03-08 06:32:23,15.08843698,0.0001641,53.2169,52.5756,91.9223,268.1957,9.348e-05,1.2e-05,0.0,0 STARLINK-3590,1 51867U 22022R   24068.27249976  .00001200  00000-0  93480-4 0  9992,2 51867  53.2169  52.5756 0001641  91.9223 268.1957 15.08843698112692,6917.869,95.437,540.869,538.599,0.0
51867.0,STARLINK-3590,PAYLOAD,2024-03-08 22:26:15,15.08838646,0.00016,53.2165,49.6036,92.3019,267.8157,6.6618e-05,7.72e-06,0.0,0 STARLINK-3590,1 51867U 22022R   24068.93490216  .00000772  00000-0  66618-4 0  9996,2 51867  53.2165  49.6036 0001600  92.3019 267.8157 15.08838646112795,6917.885,95.438,540.856,538.643,0.0
51867.0,STARLINK-3590,PAYLOAD,2024-03-09 07:58:33,15.08850576,0.0001399,53.2163,47.8191,102.0004,258.1145,0.00011558,1.553e-05,0.0,0 STARLINK-3590,1 51867U 22022R   24069.33233510  .00001553  00000-0  11558-3 0  9993,2 51867  53.2163  47.8191 0001399 102.0004 258.1145 15.08850576112856,6917.848,95.437,540.681,538.745,0.0
51867.0,STARLINK-3590,PAYLOAD,2024-03-09 15:55:29,15.08846738,0.00015,53.2169,46.3318,94.1825,265.9338,9.5766e-05,1.237e-05,0.0,0 STARLINK-3590,1 51867U 22022R   24069.66353646  .00001237  00000-0  95766-4 0  9995,2 51867  53.2169  46.3318 0001500  94.1825 265.9338 15.08846738112904,6917.86,95.437,540.762,538.687,0.0
51867.0,STARLINK-3590,PAYLOAD,2024-03-10 04:38:34,15.08848498,0.0001449,53.2173,43.9518,95.5266,264.5891,0.00018079,2.591e-05,0.0,0 STARLINK-3590,1 51867U 22022R   24070.19345443  .00002591  00000-0  18079-3 0  9996,2 51867  53.2173  43.9518 0001449  95.5266 264.5891 15.08848498112982,6917.854,95.437,540.722,538.717,0.0
51867.0,STARLINK-3590,PAYLOAD,2024-03-10 07:49:20,15.08853553,0.0001539,53.2169,43.357,94.9705,265.1463,0.00021708,3.17e-05,0.0,0 STARLINK-3590,1 51867U 22022R   24070.32593127  .00003170  00000-0  21708-3 0  9992,2 51867  53.2169  43.3570 0001539  94.9705 265.1463 15.08853553113004,6917.839,95.437,540.769,538.639,0.0
51867.0,STARLINK-3590,PAYLOAD,2024-03-10 15:46:16,15.08836754,0.0001815,53.2177,41.8722,83.463,276.6569,-1.017e-05,-4.5e-06,0.0,0 STARLINK-3590,1 51867U 22022R   24070.65714094 -.00000450  00000-0 -10170-4 0  9998,2 51867  53.2177  41.8722 0001815  83.4630 276.6569 15.08836754113055,6917.89,95.438,541.011,538.5,0.0
51867.0,STARLINK-3590,PAYLOAD,2024-03-11 04:29:22,15.08836103,0.0001598,53.2176,39.492,90.9097,269.2078,-6.9109e-05,-1.388e-05,0.0,0 STARLINK-3590,1 51867U 22022R   24071.18706154 -.00001388  00000-0 -69109-4 0  9992,2 51867  53.2176  39.4920 0001598  90.9097 269.2078 15.08836103113135,6917.892,95.438,540.863,538.652,0.0
51867.0,STARLINK-3590,PAYLOAD,2024-03-12 04:20:08,15.08843944,0.000162,53.2184,35.0313,94.412,265.7058,4.5577e-05,4.37e-06,0.0,0 STARLINK-3590,1 51867U 22022R   24072.18065921  .00000437  00000-0  45577-4 0  9998,2 51867  53.2184  35.0313 0001620  94.4120 265.7058 15.08843944113280,6917.868,95.437,540.854,538.613,0.0
51867.0,STARLINK-3590,PAYLOAD,2024-03-12 21:49:23,15.08836887,0.0001665,53.2184,31.761,87.9662,272.1521,0.00015448,2.171e-05,0.0,0 STARLINK-3590,1 51867U 22022R   24072.90930486  .00002171  00000-0  15448-3 0  9995,2 51867  53.2184  31.7610 0001665  87.9662 272.1521 15.08836887113397,6917.89,95.438,540.907,538.603,0.0
51867.0,STARLINK-3590,PAYLOAD,2024-03-13 07:21:42,15.08846789,0.0001519,53.2188,29.9796,93.4534,266.6631,0.00022479,3.292e-05,0.0,0 STARLINK-3590,1 51867U 22022R   24073.30673933  .00003292  00000-0  22479-3 0  9998,2 51867  53.2188  29.9796 0001519  93.4534 266.6631 15.08846789113452,6917.86,95.437,540.775,538.674,0.0
51867.0,STARLINK-3590,PAYLOAD,2024-03-13 13:43:15,15.08842732,0.0001368,53.2174,28.7864,74.3602,285.7541,0.00015329,2.153e-05,0.0,0 STARLINK-3590,1 51867U 22022R   24073.57170169  .00002153  00000-0  15329-3 0  9991,2 51867  53.2174  28.7864 0001368  74.3602 285.7541 15.08842732113496,6917.872,95.437,540.683,538.791,0.0
51867.0,STARLINK-3590,PAYLOAD,2024-03-14 04:01:43,15.0883745,0.000146,53.2187,26.1145,95.0432,265.0727,5.43e-05,5.76e-06,0.0,0 STARLINK-3590,1 51867U 22022R   24074.16786815  .00000576  00000-0  54300-4 0  9998,2 51867  53.2187  26.1145 0001460  95.0432 265.0727 15.08837450113586,6917.888,95.438,540.763,538.743,0.0
51867.0,STARLINK-3590,PAYLOAD,2024-03-14 07:12:29,15.0884834,0.0001558,53.2197,25.5189,96.7793,263.3377,-6.5141e-06,-3.92e-06,0.0,0 STARLINK-3590,1 51867U 22022R   24074.30034221 -.00000392  00000-0 -65141-5 0  9995,2 51867  53.2197  25.5189 0001558  96.7793 263.3377 15.08848340113609,6917.855,95.437,540.798,538.642,0.0
51867.0,STARLINK-3590,PAYLOAD,2024-03-14 19:55:35,15.08838985,0.0001697,53.2181,23.1387,89.2173,270.9014,2.9553e-06,-2.41e-06,0.0,0 STARLINK-3590,1 51867U 22022R   24074.83026981 -.00000241  00000-0  29553-5 0  9996,2 51867  53.2181  23.1387 0001697  89.2173 270.9014 15.08838985113683,6917.883,95.438,540.922,538.575,0.0
51867.0,STARLINK-3590,PAYLOAD,2024-03-15 03:52:30,15.0884732,0.0001405,53.2186,21.6519,82.7777,277.3375,7.89e-05,9.68e-06,0.0,0 STARLINK-3590,1 51867U 22022R   24075.16146254  .00000968  00000-0  78900-4 0  9993,2 51867  53.2186  21.6519 0001405  82.7777 277.3375 15.08847320113733,6917.858,95.437,540.695,538.751,0.0
51867.0,STARLINK-3590,PAYLOAD,2024-03-15 19:46:21,15.08838541,0.000148,53.2186,18.6803,104.7369,255.3787,9.0327e-05,1.15e-05,0.0,0 STARLINK-3590,1 51867U 22022R   24075.82386499  .00001150  00000-0  90327-4 0  9994,2 51867  53.2186  18.6803 0001480 104.7369 255.3787 15.08838541113839,6917.885,95.438,540.774,538.726,0.0
51867.0,STARLINK-3590,PAYLOAD,2024-03-16 05:18:40,15.08846272,0.0001429,53.218,16.8942,89.8002,270.3154,0.00011087,1.477e-05,0.0,0 STARLINK-3590,1 51867U 22022R   24076.22130266  .00001477  00000-0  11087-3 0  9995,2 51867  53.2180  16.8942 0001429  89.8002 270.3154 15.08846272113898,6917.861,95.437,540.715,538.738,0.0
51867.0,STARLINK-3590,PAYLOAD,2024-03-17 01:58:42,15.08839463,0.0001395,53.218,13.0271,95.6206,264.4945,-3.4555e-05,-8.38e-06,0.0,0 STARLINK-3590,1 51867U 22022R   24077.08243158 -.00000838  00000-0 -34555-4 0  9993,2 51867  53.2180  13.0271 0001395  95.6206 264.4945 15.08839463114027,6917.882,95.438,540.712,538.782,0.0
51867.0,STARLINK-3590,PAYLOAD,2024-03-17 05:09:27,15.08845867,0.0001304,53.2183,12.4302,108.0593,252.0541,-7.6871e-06,-4.1e-06,0.0,0 STARLINK-3590,1 51867U 22022R   24077.21490489 -.00000410  00000-0 -76871-5 0  9993,2 51867  53.2183  12.4302 0001304 108.0593 252.0541 15.08845867114048,6917.862,95.437,540.63,538.825,0.0
51867.0,STARLINK-3590,PAYLOAD,2024-03-17 22:38:42,15.08843685,0.0001672,53.2198,9.1579,128.0039,232.1104,-2.3026e-05,-6.55e-06,0.0,0 STARLINK-3590,1 51867U 22022R   24077.94354771 -.00000655  00000-0 -23026-4 0  9990,2 51867  53.2198   9.1579 0001672 128.0039 232.1104 15.08843685114150,6917.869,95.437,540.891,538.577,0.0
51867.0,STARLINK-3590,PAYLOAD,2024-03-18 05:00:15,15.08843427,0.0001576,53.219,7.9675,120.1487,239.9662,-1.4305e-05,-5.16e-06,0.0,0 STARLINK-3590,1 51867U 22022R   24078.20850771 -.00000516  00000-0 -14305-4 0  9997,2 51867  53.2190   7.9675 0001576 120.1487 239.9662 15.08843427114190,6917.87,95.437,540.825,538.645,0.0
51867.0,STARLINK-3590,PAYLOAD,2024-03-18 22:29:29,15.0884325,0.0001661,53.2199,4.6975,119.4588,240.657,0.0001002,1.307e-05,0.0,0 STARLINK-3590,1 51867U 22022R   24078.93714498  .00001307  00000-0  10020-3 0  9998,2 51867  53.2199   4.6975 0001661 119.4588 240.6570 15.08843250114308,6917.87,95.437,540.885,538.586,0.0
51867.0,STARLINK-3590,PAYLOAD,2024-03-19 04:51:01,15.08850092,0.0001548,53.2198,3.5074,107.6449,252.4712,0.00015777,2.224e-05,0.0,0 STARLINK-3590,1 51867U 22022R   24079.20210036  .00002224  00000-0  15777-3 0  9991,2 51867  53.2198   3.5074 0001548 107.6449 252.4712 15.08850092114349,6917.85,95.437,540.785,538.644,0.0
51867.0,STARLINK-3590,PAYLOAD,2024-03-19 22:20:15,15.08850237,0.0001487,53.2195,0.2363,107.5919,252.5235,0.00014956,2.094e-05,0.0,0 STARLINK-3590,1 51867U 22022R   24079.93073763  .00002094  00000-0  14956-3 0  9998,2 51867  53.2195   0.2363 0001487 107.5919 252.5235 15.08850237114458,6917.849,95.437,540.743,538.685,0.0
51867.0,STARLINK-3590,PAYLOAD,2024-03-19 23:55:38,15.08851176,0.0001472,53.2194,359.939,105.4272,254.6883,0.00015725,2.216e-05,0.0,0 STARLINK-3590,1 51867U 22022R   24079.99697678  .00002216  00000-0  15725-3 0  9992,2 51867  53.2194 359.9390 0001472 105.4272 254.6883 15.08851176114460,6917.846,95.437,540.73,538.693,0.0
51867.0,STARLINK-3590,PAYLOAD,2024-03-20 22:11:02,15.08851108,0.0001404,53.2183,355.7764,104.6203,255.4945,2.1747e-06,-2.53e-06,0.0,0 STARLINK-3590,1 51867U 22022R   24080.92433278 -.00000253  00000-0  21747-5 0  9994,2 51867  53.2183 355.7764 0001404 104.6203 255.4945 15.08851108114606,6917.846,95.437,540.683,538.74,0.0
51867.0,STARLINK-3590,PAYLOAD,2024-03-21 01:21:49,15.08849822,0.0001167,53.2181,355.1843,64.7004,295.4109,-2.2965e-05,-6.53e-06,0.0,0 STARLINK-3590,1 51867U 22022R   24081.05681762 -.00000653  00000-0 -22965-4 0  9999,2 51867  53.2181 355.1843 0001167  64.7004 295.4109 15.08849822114625,6917.85,95.437,540.523,538.908,0.0
